{
  "features": [
    {
      "geometry": {
        "coordinates": [
          13.586813,
          48.567382
        ],
        "type": "Point"
      },
      "properties": {
        "capture_datetime_utc": "2026-08-04T16:36:22.153894+00:00",
        "country_code": "DE",
        "discharge": null,
        "river_km": 2214.5,
        "river_name": "Danube",
        "source_id": "pegelonline_de",
        "source_label": "WSV PEGELONLINE",
        "source_status": "complete",
        "source_url": "https://www.pegelonline.wsv.de/webservices/rest-api/v2/stations/99619dc5-9c88-45e9-a97d-653c41cda8a1.json",
        "station_id": "de-99619dc5-9c88-45e9-a97d-653c41cda8a1",
        "station_name": "ERLAU",
        "station_name_local": "ERLAU",
        "station_slug": "de-erlau",
        "station_type": "gauge",
        "water_level": {
          "canonical_quality_flag": "observed",
          "captured_at_utc": "2026-08-04T16:36:22.153894+00:00",
          "captured_via_provider_id": "pegelonline_de",
          "country_code": "DE",
          "current_usable": true,
          "measurement_date": null,
          "measurement_datetime_local": "2026-08-04T18:30:00+02:00",
          "measurement_datetime_utc": "2026-08-04T16:30:00+00:00",
          "measurement_time_original": "2026-08-04T18:30:00+02:00",
          "measurement_timezone": "source ISO-8601 offset",
          "operator_provider_id": "pegelonline_de",
          "parameter": "water_level",
          "source_file_sha256": "f226fa612eab92f06f9773b3853abac9bfdc7cb5a9bce4d37dcb8b6cfaf6ae57",
          "source_id": "pegelonline_de",
          "source_provider_id": "pegelonline_de",
          "source_quality_code": "source_unit=cm;low;unknown",
          "source_station_id": "99619dc5-9c88-45e9-a97d-653c41cda8a1",
          "source_status": "complete",
          "source_url": "https://www.pegelonline.wsv.de/webservices/rest-api/v2/stations/99619dc5-9c88-45e9-a97d-653c41cda8a1.json",
          "stale": false,
          "station_id": "de-99619dc5-9c88-45e9-a97d-653c41cda8a1",
          "station_name": "ERLAU",
          "station_name_local": "ERLAU",
          "unit": "cm",
          "value": 737.0,
          "variation_value": null,
          "variation_window_hours": null
        },
        "water_temperature": null
      },
      "type": "Feature"
    },
    {
      "geometry": {
        "coordinates": [
          13.478017,
          48.575198
        ],
        "type": "Point"
      },
      "properties": {
        "capture_datetime_utc": "2026-08-04T16:36:22.153894+00:00",
        "country_code": "DE",
        "discharge": null,
        "river_km": 2225.2,
        "river_name": "Danube",
        "source_id": "pegelonline_de",
        "source_label": "WSV PEGELONLINE",
        "source_status": "complete",
        "source_url": "https://www.pegelonline.wsv.de/webservices/rest-api/v2/stations/33ceb441-23bc-4ca6-9fcd-ac35d41ef117.json",
        "station_id": "de-33ceb441-23bc-4ca6-9fcd-ac35d41ef117",
        "station_name": "PASSAU ILZSTADT",
        "station_name_local": "PASSAU ILZSTADT",
        "station_slug": "de-passau-ilzstadt",
        "station_type": "gauge",
        "water_level": {
          "canonical_quality_flag": "observed",
          "captured_at_utc": "2026-08-04T16:36:22.153894+00:00",
          "captured_via_provider_id": "pegelonline_de",
          "country_code": "DE",
          "current_usable": true,
          "measurement_date": null,
          "measurement_datetime_local": "2026-08-04T18:30:00+02:00",
          "measurement_datetime_utc": "2026-08-04T16:30:00+00:00",
          "measurement_time_original": "2026-08-04T18:30:00+02:00",
          "measurement_timezone": "source ISO-8601 offset",
          "operator_provider_id": "pegelonline_de",
          "parameter": "water_level",
          "source_file_sha256": "f226fa612eab92f06f9773b3853abac9bfdc7cb5a9bce4d37dcb8b6cfaf6ae57",
          "source_id": "pegelonline_de",
          "source_provider_id": "pegelonline_de",
          "source_quality_code": "source_unit=cm;low;unknown",
          "source_station_id": "33ceb441-23bc-4ca6-9fcd-ac35d41ef117",
          "source_status": "complete",
          "source_url": "https://www.pegelonline.wsv.de/webservices/rest-api/v2/stations/33ceb441-23bc-4ca6-9fcd-ac35d41ef117.json",
          "stale": false,
          "station_id": "de-33ceb441-23bc-4ca6-9fcd-ac35d41ef117",
          "station_name": "PASSAU ILZSTADT",
          "station_name_local": "PASSAU ILZSTADT",
          "unit": "cm",
          "value": 415.0,
          "variation_value": null,
          "variation_window_hours": null
        },
        "water_temperature": null
      },
      "type": "Feature"
    },
    {
      "geometry": {
        "coordinates": [
          13.472833,
          48.575835
        ],
        "type": "Point"
      },
      "properties": {
        "capture_datetime_utc": "2026-08-04T16:36:22.153894+00:00",
        "country_code": "DE",
        "discharge": null,
        "river_km": 2225.75,
        "river_name": "Danube",
        "source_id": "pegelonline_de",
        "source_label": "WSV PEGELONLINE",
        "source_status": "complete",
        "source_url": "https://www.pegelonline.wsv.de/webservices/rest-api/v2/stations/4520c1a8-174c-4b95-9ca3-fe1e3f9d874a.json",
        "station_id": "de-4520c1a8-174c-4b95-9ca3-fe1e3f9d874a",
        "station_name": "PASSAU LUITPOLDBRUCKE DFH",
        "station_name_local": "PASSAU LUITPOLDBRÜCKE DFH",
        "station_slug": "de-passau-luitpoldbrucke-dfh",
        "station_type": "gauge",
        "water_level": null,
        "water_temperature": null
      },
      "type": "Feature"
    },
    {
      "geometry": {
        "coordinates": [
          13.459076,
          48.576133
        ],
        "type": "Point"
      },
      "properties": {
        "capture_datetime_utc": "2026-08-04T16:36:22.153894+00:00",
        "country_code": "DE",
        "discharge": null,
        "river_km": 2226.7,
        "river_name": "Danube",
        "source_id": "pegelonline_de",
        "source_label": "WSV PEGELONLINE",
        "source_status": "complete",
        "source_url": "https://www.pegelonline.wsv.de/webservices/rest-api/v2/stations/9f12c405-35ac-4d90-9b7b-023be355867e.json",
        "station_id": "de-9f12c405-35ac-4d90-9b7b-023be355867e",
        "station_name": "PASSAU DONAU",
        "station_name_local": "PASSAU DONAU",
        "station_slug": "de-passau-donau",
        "station_type": "gauge",
        "water_level": {
          "canonical_quality_flag": "observed",
          "captured_at_utc": "2026-08-04T16:36:22.153894+00:00",
          "captured_via_provider_id": "pegelonline_de",
          "country_code": "DE",
          "current_usable": true,
          "measurement_date": null,
          "measurement_datetime_local": "2026-08-04T18:30:00+02:00",
          "measurement_datetime_utc": "2026-08-04T16:30:00+00:00",
          "measurement_time_original": "2026-08-04T18:30:00+02:00",
          "measurement_timezone": "source ISO-8601 offset",
          "operator_provider_id": "pegelonline_de",
          "parameter": "water_level",
          "source_file_sha256": "f226fa612eab92f06f9773b3853abac9bfdc7cb5a9bce4d37dcb8b6cfaf6ae57",
          "source_id": "pegelonline_de",
          "source_provider_id": "pegelonline_de",
          "source_quality_code": "source_unit=cm;low;normal",
          "source_station_id": "9f12c405-35ac-4d90-9b7b-023be355867e",
          "source_status": "complete",
          "source_url": "https://www.pegelonline.wsv.de/webservices/rest-api/v2/stations/9f12c405-35ac-4d90-9b7b-023be355867e.json",
          "stale": false,
          "station_id": "de-9f12c405-35ac-4d90-9b7b-023be355867e",
          "station_name": "PASSAU DONAU",
          "station_name_local": "PASSAU DONAU",
          "unit": "cm",
          "value": 393.0,
          "variation_value": null,
          "variation_window_hours": null
        },
        "water_temperature": {
          "canonical_quality_flag": "observed",
          "captured_at_utc": "2026-08-04T16:36:22.153894+00:00",
          "captured_via_provider_id": "pegelonline_de",
          "country_code": "DE",
          "current_usable": true,
          "measurement_date": null,
          "measurement_datetime_local": "2026-08-04T18:00:00+02:00",
          "measurement_datetime_utc": "2026-08-04T16:00:00+00:00",
          "measurement_time_original": "2026-08-04T18:00:00+02:00",
          "measurement_timezone": "source ISO-8601 offset",
          "operator_provider_id": "pegelonline_de",
          "parameter": "water_temperature",
          "source_file_sha256": "f226fa612eab92f06f9773b3853abac9bfdc7cb5a9bce4d37dcb8b6cfaf6ae57",
          "source_id": "pegelonline_de",
          "source_provider_id": "pegelonline_de",
          "source_quality_code": "source_unit=°C",
          "source_station_id": "9f12c405-35ac-4d90-9b7b-023be355867e",
          "source_status": "complete",
          "source_url": "https://www.pegelonline.wsv.de/webservices/rest-api/v2/stations/9f12c405-35ac-4d90-9b7b-023be355867e.json",
          "stale": false,
          "station_id": "de-9f12c405-35ac-4d90-9b7b-023be355867e",
          "station_name": "PASSAU DONAU",
          "station_name_local": "PASSAU DONAU",
          "unit": "degC",
          "value": 28.4,
          "variation_value": null,
          "variation_window_hours": null
        }
      },
      "type": "Feature"
    },
    {
      "geometry": {
        "coordinates": [
          13.41269,
          48.578228
        ],
        "type": "Point"
      },
      "properties": {
        "capture_datetime_utc": "2026-08-04T16:36:22.153894+00:00",
        "country_code": "DE",
        "discharge": null,
        "river_km": 2230.3,
        "river_name": "Danube",
        "source_id": "pegelonline_de",
        "source_label": "WSV PEGELONLINE",
        "source_status": "complete",
        "source_url": "https://www.pegelonline.wsv.de/webservices/rest-api/v2/stations/0fd56e0a-e32e-4b56-9cda-e0ce93d715c4.json",
        "station_id": "de-0fd56e0a-e32e-4b56-9cda-e0ce93d715c4",
        "station_name": "KACHLET SCHLEUSE UP",
        "station_name_local": "KACHLET SCHLEUSE UP",
        "station_slug": "de-kachlet-schleuse-up",
        "station_type": "gauge",
        "water_level": {
          "canonical_quality_flag": "observed",
          "captured_at_utc": "2026-08-04T16:36:22.153894+00:00",
          "captured_via_provider_id": "pegelonline_de",
          "country_code": "DE",
          "current_usable": true,
          "measurement_date": null,
          "measurement_datetime_local": "2026-08-04T18:30:00+02:00",
          "measurement_datetime_utc": "2026-08-04T16:30:00+00:00",
          "measurement_time_original": "2026-08-04T18:30:00+02:00",
          "measurement_timezone": "source ISO-8601 offset",
          "operator_provider_id": "pegelonline_de",
          "parameter": "water_level",
          "source_file_sha256": "f226fa612eab92f06f9773b3853abac9bfdc7cb5a9bce4d37dcb8b6cfaf6ae57",
          "source_id": "pegelonline_de",
          "source_provider_id": "pegelonline_de",
          "source_quality_code": "source_unit=cm;low;unknown",
          "source_station_id": "0fd56e0a-e32e-4b56-9cda-e0ce93d715c4",
          "source_status": "complete",
          "source_url": "https://www.pegelonline.wsv.de/webservices/rest-api/v2/stations/0fd56e0a-e32e-4b56-9cda-e0ce93d715c4.json",
          "stale": false,
          "station_id": "de-0fd56e0a-e32e-4b56-9cda-e0ce93d715c4",
          "station_name": "KACHLET SCHLEUSE UP",
          "station_name_local": "KACHLET SCHLEUSE UP",
          "unit": "cm",
          "value": 23.0,
          "variation_value": null,
          "variation_window_hours": null
        },
        "water_temperature": null
      },
      "type": "Feature"
    },
    {
      "geometry": {
        "coordinates": [
          13.475462,
          48.57567
        ],
        "type": "Point"
      },
      "properties": {
        "capture_datetime_utc": "2026-08-04T16:36:22.153894+00:00",
        "country_code": "DE",
        "discharge": null,
        "river_km": 2230.31,
        "river_name": "Danube",
        "source_id": "pegelonline_de",
        "source_label": "WSV PEGELONLINE",
        "source_status": "complete",
        "source_url": "https://www.pegelonline.wsv.de/webservices/rest-api/v2/stations/3199ce09-cd9b-4be2-82bc-f03bb81438e5.json",
        "station_id": "de-3199ce09-cd9b-4be2-82bc-f03bb81438e5",
        "station_name": "PASSAU STEINBACHBRUCKE DFH",
        "station_name_local": "PASSAU STEINBACHBRÜCKE DFH",
        "station_slug": "de-passau-steinbachbrucke-dfh",
        "station_type": "gauge",
        "water_level": null,
        "water_temperature": null
      },
      "type": "Feature"
    },
    {
      "geometry": {
        "coordinates": [
          13.182429,
          48.637297
        ],
        "type": "Point"
      },
      "properties": {
        "capture_datetime_utc": "2026-08-04T16:36:22.153894+00:00",
        "country_code": "DE",
        "discharge": null,
        "river_km": 2249.5,
        "river_name": "Danube",
        "source_id": "pegelonline_de",
        "source_label": "WSV PEGELONLINE",
        "source_status": "complete",
        "source_url": "https://www.pegelonline.wsv.de/webservices/rest-api/v2/stations/e6d68ab7-5c27-4f25-896f-11dbf04056cd.json",
        "station_id": "de-e6d68ab7-5c27-4f25-896f-11dbf04056cd",
        "station_name": "VILSHOFEN",
        "station_name_local": "VILSHOFEN",
        "station_slug": "de-vilshofen",
        "station_type": "gauge",
        "water_level": {
          "canonical_quality_flag": "observed",
          "captured_at_utc": "2026-08-04T16:36:22.153894+00:00",
          "captured_via_provider_id": "pegelonline_de",
          "country_code": "DE",
          "current_usable": true,
          "measurement_date": null,
          "measurement_datetime_local": "2026-08-04T18:30:00+02:00",
          "measurement_datetime_utc": "2026-08-04T16:30:00+00:00",
          "measurement_time_original": "2026-08-04T18:30:00+02:00",
          "measurement_timezone": "source ISO-8601 offset",
          "operator_provider_id": "pegelonline_de",
          "parameter": "water_level",
          "source_file_sha256": "f226fa612eab92f06f9773b3853abac9bfdc7cb5a9bce4d37dcb8b6cfaf6ae57",
          "source_id": "pegelonline_de",
          "source_provider_id": "pegelonline_de",
          "source_quality_code": "source_unit=cm;low;unknown",
          "source_station_id": "e6d68ab7-5c27-4f25-896f-11dbf04056cd",
          "source_status": "complete",
          "source_url": "https://www.pegelonline.wsv.de/webservices/rest-api/v2/stations/e6d68ab7-5c27-4f25-896f-11dbf04056cd.json",
          "stale": false,
          "station_id": "de-e6d68ab7-5c27-4f25-896f-11dbf04056cd",
          "station_name": "VILSHOFEN",
          "station_name_local": "VILSHOFEN",
          "unit": "cm",
          "value": 286.0,
          "variation_value": null,
          "variation_window_hours": null
        },
        "water_temperature": {
          "canonical_quality_flag": "observed",
          "captured_at_utc": "2026-08-04T16:36:22.153894+00:00",
          "captured_via_provider_id": "pegelonline_de",
          "country_code": "DE",
          "current_usable": true,
          "measurement_date": null,
          "measurement_datetime_local": "2026-08-04T18:00:00+02:00",
          "measurement_datetime_utc": "2026-08-04T16:00:00+00:00",
          "measurement_time_original": "2026-08-04T18:00:00+02:00",
          "measurement_timezone": "source ISO-8601 offset",
          "operator_provider_id": "pegelonline_de",
          "parameter": "water_temperature",
          "source_file_sha256": "f226fa612eab92f06f9773b3853abac9bfdc7cb5a9bce4d37dcb8b6cfaf6ae57",
          "source_id": "pegelonline_de",
          "source_provider_id": "pegelonline_de",
          "source_quality_code": "source_unit=°C",
          "source_station_id": "e6d68ab7-5c27-4f25-896f-11dbf04056cd",
          "source_status": "complete",
          "source_url": "https://www.pegelonline.wsv.de/webservices/rest-api/v2/stations/e6d68ab7-5c27-4f25-896f-11dbf04056cd.json",
          "stale": false,
          "station_id": "de-e6d68ab7-5c27-4f25-896f-11dbf04056cd",
          "station_name": "VILSHOFEN",
          "station_name_local": "VILSHOFEN",
          "unit": "degC",
          "value": 25.4,
          "variation_value": null,
          "variation_window_hours": null
        }
      },
      "type": "Feature"
    },
    {
      "geometry": {
        "coordinates": [
          13.115154,
          48.676675
        ],
        "type": "Point"
      },
      "properties": {
        "capture_datetime_utc": "2026-08-04T16:36:22.153894+00:00",
        "country_code": "DE",
        "discharge": {
          "canonical_quality_flag": "observed",
          "captured_at_utc": "2026-08-04T16:36:22.153894+00:00",
          "captured_via_provider_id": "pegelonline_de",
          "country_code": "DE",
          "current_usable": true,
          "measurement_date": null,
          "measurement_datetime_local": "2026-08-04T18:00:00+02:00",
          "measurement_datetime_utc": "2026-08-04T16:00:00+00:00",
          "measurement_time_original": "2026-08-04T18:00:00+02:00",
          "measurement_timezone": "source ISO-8601 offset",
          "operator_provider_id": "pegelonline_de",
          "parameter": "discharge",
          "source_file_sha256": "f226fa612eab92f06f9773b3853abac9bfdc7cb5a9bce4d37dcb8b6cfaf6ae57",
          "source_id": "pegelonline_de",
          "source_provider_id": "pegelonline_de",
          "source_quality_code": "source_unit=m³/s",
          "source_station_id": "616dd98e-816d-4e17-b8cd-57b163dbc8a2",
          "source_status": "complete",
          "source_url": "https://www.pegelonline.wsv.de/webservices/rest-api/v2/stations/616dd98e-816d-4e17-b8cd-57b163dbc8a2.json",
          "stale": false,
          "station_id": "de-616dd98e-816d-4e17-b8cd-57b163dbc8a2",
          "station_name": "HOFKIRCHEN",
          "station_name_local": "HOFKIRCHEN",
          "unit": "m3/s",
          "value": 188.0,
          "variation_value": null,
          "variation_window_hours": null
        },
        "river_km": 2256.9,
        "river_name": "Danube",
        "source_id": "pegelonline_de",
        "source_label": "WSV PEGELONLINE",
        "source_status": "complete",
        "source_url": "https://www.pegelonline.wsv.de/webservices/rest-api/v2/stations/616dd98e-816d-4e17-b8cd-57b163dbc8a2.json",
        "station_id": "de-616dd98e-816d-4e17-b8cd-57b163dbc8a2",
        "station_name": "HOFKIRCHEN",
        "station_name_local": "HOFKIRCHEN",
        "station_slug": "de-hofkirchen",
        "station_type": "gauge",
        "water_level": {
          "canonical_quality_flag": "observed",
          "captured_at_utc": "2026-08-04T16:36:22.153894+00:00",
          "captured_via_provider_id": "pegelonline_de",
          "country_code": "DE",
          "current_usable": true,
          "measurement_date": null,
          "measurement_datetime_local": "2026-08-04T18:30:00+02:00",
          "measurement_datetime_utc": "2026-08-04T16:30:00+00:00",
          "measurement_time_original": "2026-08-04T18:30:00+02:00",
          "measurement_timezone": "source ISO-8601 offset",
          "operator_provider_id": "pegelonline_de",
          "parameter": "water_level",
          "source_file_sha256": "f226fa612eab92f06f9773b3853abac9bfdc7cb5a9bce4d37dcb8b6cfaf6ae57",
          "source_id": "pegelonline_de",
          "source_provider_id": "pegelonline_de",
          "source_quality_code": "source_unit=cm;low;normal",
          "source_station_id": "616dd98e-816d-4e17-b8cd-57b163dbc8a2",
          "source_status": "complete",
          "source_url": "https://www.pegelonline.wsv.de/webservices/rest-api/v2/stations/616dd98e-816d-4e17-b8cd-57b163dbc8a2.json",
          "stale": false,
          "station_id": "de-616dd98e-816d-4e17-b8cd-57b163dbc8a2",
          "station_name": "HOFKIRCHEN",
          "station_name_local": "HOFKIRCHEN",
          "unit": "cm",
          "value": 147.0,
          "variation_value": null,
          "variation_window_hours": null
        },
        "water_temperature": null
      },
      "type": "Feature"
    },
    {
      "geometry": {
        "coordinates": [
          12.96235,
          48.824944
        ],
        "type": "Point"
      },
      "properties": {
        "capture_datetime_utc": "2026-08-04T16:36:22.153894+00:00",
        "country_code": "DE",
        "discharge": null,
        "river_km": 2284.4,
        "river_name": "Danube",
        "source_id": "pegelonline_de",
        "source_label": "WSV PEGELONLINE",
        "source_status": "complete",
        "source_url": "https://www.pegelonline.wsv.de/webservices/rest-api/v2/stations/53d40547-8a09-4b25-988c-2e6d8d8d98ee.json",
        "station_id": "de-53d40547-8a09-4b25-988c-2e6d8d8d98ee",
        "station_name": "DEGGENDORF",
        "station_name_local": "DEGGENDORF",
        "station_slug": "de-deggendorf",
        "station_type": "gauge",
        "water_level": {
          "canonical_quality_flag": "observed",
          "captured_at_utc": "2026-08-04T16:36:22.153894+00:00",
          "captured_via_provider_id": "pegelonline_de",
          "country_code": "DE",
          "current_usable": true,
          "measurement_date": null,
          "measurement_datetime_local": "2026-08-04T18:30:00+02:00",
          "measurement_datetime_utc": "2026-08-04T16:30:00+00:00",
          "measurement_time_original": "2026-08-04T18:30:00+02:00",
          "measurement_timezone": "source ISO-8601 offset",
          "operator_provider_id": "pegelonline_de",
          "parameter": "water_level",
          "source_file_sha256": "f226fa612eab92f06f9773b3853abac9bfdc7cb5a9bce4d37dcb8b6cfaf6ae57",
          "source_id": "pegelonline_de",
          "source_provider_id": "pegelonline_de",
          "source_quality_code": "source_unit=cm;low;unknown",
          "source_station_id": "53d40547-8a09-4b25-988c-2e6d8d8d98ee",
          "source_status": "complete",
          "source_url": "https://www.pegelonline.wsv.de/webservices/rest-api/v2/stations/53d40547-8a09-4b25-988c-2e6d8d8d98ee.json",
          "stale": false,
          "station_id": "de-53d40547-8a09-4b25-988c-2e6d8d8d98ee",
          "station_name": "DEGGENDORF",
          "station_name_local": "DEGGENDORF",
          "unit": "cm",
          "value": 133.0,
          "variation_value": null,
          "variation_window_hours": null
        },
        "water_temperature": {
          "canonical_quality_flag": "observed",
          "captured_at_utc": "2026-08-04T16:36:22.153894+00:00",
          "captured_via_provider_id": "pegelonline_de",
          "country_code": "DE",
          "current_usable": true,
          "measurement_date": null,
          "measurement_datetime_local": "2026-08-04T18:00:00+02:00",
          "measurement_datetime_utc": "2026-08-04T16:00:00+00:00",
          "measurement_time_original": "2026-08-04T18:00:00+02:00",
          "measurement_timezone": "source ISO-8601 offset",
          "operator_provider_id": "pegelonline_de",
          "parameter": "water_temperature",
          "source_file_sha256": "f226fa612eab92f06f9773b3853abac9bfdc7cb5a9bce4d37dcb8b6cfaf6ae57",
          "source_id": "pegelonline_de",
          "source_provider_id": "pegelonline_de",
          "source_quality_code": "source_unit=°C",
          "source_station_id": "53d40547-8a09-4b25-988c-2e6d8d8d98ee",
          "source_status": "complete",
          "source_url": "https://www.pegelonline.wsv.de/webservices/rest-api/v2/stations/53d40547-8a09-4b25-988c-2e6d8d8d98ee.json",
          "stale": false,
          "station_id": "de-53d40547-8a09-4b25-988c-2e6d8d8d98ee",
          "station_name": "DEGGENDORF",
          "station_name_local": "DEGGENDORF",
          "unit": "degC",
          "value": 28.7,
          "variation_value": null,
          "variation_window_hours": null
        }
      },
      "type": "Feature"
    },
    {
      "geometry": {
        "coordinates": [
          12.747217,
          48.879766
        ],
        "type": "Point"
      },
      "properties": {
        "capture_datetime_utc": "2026-08-04T16:36:22.153894+00:00",
        "country_code": "DE",
        "discharge": {
          "canonical_quality_flag": "observed",
          "captured_at_utc": "2026-08-04T16:36:22.153894+00:00",
          "captured_via_provider_id": "pegelonline_de",
          "country_code": "DE",
          "current_usable": true,
          "measurement_date": null,
          "measurement_datetime_local": "2026-08-04T18:00:00+02:00",
          "measurement_datetime_utc": "2026-08-04T16:00:00+00:00",
          "measurement_time_original": "2026-08-04T18:00:00+02:00",
          "measurement_timezone": "source ISO-8601 offset",
          "operator_provider_id": "pegelonline_de",
          "parameter": "discharge",
          "source_file_sha256": "f226fa612eab92f06f9773b3853abac9bfdc7cb5a9bce4d37dcb8b6cfaf6ae57",
          "source_id": "pegelonline_de",
          "source_provider_id": "pegelonline_de",
          "source_quality_code": "source_unit=m³/s",
          "source_station_id": "7fe63a95-8ff6-4cff-9a29-a124136516b5",
          "source_status": "complete",
          "source_url": "https://www.pegelonline.wsv.de/webservices/rest-api/v2/stations/7fe63a95-8ff6-4cff-9a29-a124136516b5.json",
          "stale": false,
          "station_id": "de-7fe63a95-8ff6-4cff-9a29-a124136516b5",
          "station_name": "PFELLING",
          "station_name_local": "PFELLING",
          "unit": "m3/s",
          "value": 129.0,
          "variation_value": null,
          "variation_window_hours": null
        },
        "river_km": 2305.5,
        "river_name": "Danube",
        "source_id": "pegelonline_de",
        "source_label": "WSV PEGELONLINE",
        "source_status": "complete",
        "source_url": "https://www.pegelonline.wsv.de/webservices/rest-api/v2/stations/7fe63a95-8ff6-4cff-9a29-a124136516b5.json",
        "station_id": "de-7fe63a95-8ff6-4cff-9a29-a124136516b5",
        "station_name": "PFELLING",
        "station_name_local": "PFELLING",
        "station_slug": "de-pfelling",
        "station_type": "gauge",
        "water_level": {
          "canonical_quality_flag": "observed",
          "captured_at_utc": "2026-08-04T16:36:22.153894+00:00",
          "captured_via_provider_id": "pegelonline_de",
          "country_code": "DE",
          "current_usable": true,
          "measurement_date": null,
          "measurement_datetime_local": "2026-08-04T18:30:00+02:00",
          "measurement_datetime_utc": "2026-08-04T16:30:00+00:00",
          "measurement_time_original": "2026-08-04T18:30:00+02:00",
          "measurement_timezone": "source ISO-8601 offset",
          "operator_provider_id": "pegelonline_de",
          "parameter": "water_level",
          "source_file_sha256": "f226fa612eab92f06f9773b3853abac9bfdc7cb5a9bce4d37dcb8b6cfaf6ae57",
          "source_id": "pegelonline_de",
          "source_provider_id": "pegelonline_de",
          "source_quality_code": "source_unit=cm;low;normal",
          "source_station_id": "7fe63a95-8ff6-4cff-9a29-a124136516b5",
          "source_status": "complete",
          "source_url": "https://www.pegelonline.wsv.de/webservices/rest-api/v2/stations/7fe63a95-8ff6-4cff-9a29-a124136516b5.json",
          "stale": false,
          "station_id": "de-7fe63a95-8ff6-4cff-9a29-a124136516b5",
          "station_name": "PFELLING",
          "station_name_local": "PFELLING",
          "unit": "cm",
          "value": 211.0,
          "variation_value": null,
          "variation_window_hours": null
        },
        "water_temperature": null
      },
      "type": "Feature"
    },
    {
      "geometry": {
        "coordinates": [
          12.383772,
          48.980436
        ],
        "type": "Point"
      },
      "properties": {
        "capture_datetime_utc": "2026-08-04T16:36:22.153894+00:00",
        "country_code": "DE",
        "discharge": null,
        "river_km": 2350.7,
        "river_name": "Danube",
        "source_id": "pegelonline_de",
        "source_label": "WSV PEGELONLINE",
        "source_status": "complete",
        "source_url": "https://www.pegelonline.wsv.de/webservices/rest-api/v2/stations/f768173a-7a22-40f7-90a3-4676da7e5010.json",
        "station_id": "de-f768173a-7a22-40f7-90a3-4676da7e5010",
        "station_name": "PFATTER",
        "station_name_local": "PFATTER",
        "station_slug": "de-pfatter",
        "station_type": "gauge",
        "water_level": {
          "canonical_quality_flag": "observed",
          "captured_at_utc": "2026-08-04T16:36:22.153894+00:00",
          "captured_via_provider_id": "pegelonline_de",
          "country_code": "DE",
          "current_usable": true,
          "measurement_date": null,
          "measurement_datetime_local": "2026-08-04T18:30:00+02:00",
          "measurement_datetime_utc": "2026-08-04T16:30:00+00:00",
          "measurement_time_original": "2026-08-04T18:30:00+02:00",
          "measurement_timezone": "source ISO-8601 offset",
          "operator_provider_id": "pegelonline_de",
          "parameter": "water_level",
          "source_file_sha256": "f226fa612eab92f06f9773b3853abac9bfdc7cb5a9bce4d37dcb8b6cfaf6ae57",
          "source_id": "pegelonline_de",
          "source_provider_id": "pegelonline_de",
          "source_quality_code": "source_unit=cm;low;normal",
          "source_station_id": "f768173a-7a22-40f7-90a3-4676da7e5010",
          "source_status": "complete",
          "source_url": "https://www.pegelonline.wsv.de/webservices/rest-api/v2/stations/f768173a-7a22-40f7-90a3-4676da7e5010.json",
          "stale": false,
          "station_id": "de-f768173a-7a22-40f7-90a3-4676da7e5010",
          "station_name": "PFATTER",
          "station_name_local": "PFATTER",
          "unit": "cm",
          "value": 301.0,
          "variation_value": null,
          "variation_window_hours": null
        },
        "water_temperature": null
      },
      "type": "Feature"
    },
    {
      "geometry": {
        "coordinates": [
          12.138693,
          49.023583
        ],
        "type": "Point"
      },
      "properties": {
        "capture_datetime_utc": "2026-08-04T16:36:22.153894+00:00",
        "country_code": "DE",
        "discharge": {
          "canonical_quality_flag": "observed",
          "captured_at_utc": "2026-08-04T16:36:22.153894+00:00",
          "captured_via_provider_id": "pegelonline_de",
          "country_code": "DE",
          "current_usable": true,
          "measurement_date": null,
          "measurement_datetime_local": "2026-08-04T18:00:00+02:00",
          "measurement_datetime_utc": "2026-08-04T16:00:00+00:00",
          "measurement_time_original": "2026-08-04T18:00:00+02:00",
          "measurement_timezone": "source ISO-8601 offset",
          "operator_provider_id": "pegelonline_de",
          "parameter": "discharge",
          "source_file_sha256": "f226fa612eab92f06f9773b3853abac9bfdc7cb5a9bce4d37dcb8b6cfaf6ae57",
          "source_id": "pegelonline_de",
          "source_provider_id": "pegelonline_de",
          "source_quality_code": "source_unit=m³/s",
          "source_station_id": "7644f1d7-3198-4313-9340-abefd459a4f3",
          "source_status": "complete",
          "source_url": "https://www.pegelonline.wsv.de/webservices/rest-api/v2/stations/7644f1d7-3198-4313-9340-abefd459a4f3.json",
          "stale": false,
          "station_id": "de-7644f1d7-3198-4313-9340-abefd459a4f3",
          "station_name": "SCHWABELWEIS",
          "station_name_local": "SCHWABELWEIS",
          "unit": "m3/s",
          "value": 147.0,
          "variation_value": null,
          "variation_window_hours": null
        },
        "river_km": 2376.5,
        "river_name": "Danube",
        "source_id": "pegelonline_de",
        "source_label": "WSV PEGELONLINE",
        "source_status": "complete",
        "source_url": "https://www.pegelonline.wsv.de/webservices/rest-api/v2/stations/7644f1d7-3198-4313-9340-abefd459a4f3.json",
        "station_id": "de-7644f1d7-3198-4313-9340-abefd459a4f3",
        "station_name": "SCHWABELWEIS",
        "station_name_local": "SCHWABELWEIS",
        "station_slug": "de-schwabelweis",
        "station_type": "gauge",
        "water_level": {
          "canonical_quality_flag": "observed",
          "captured_at_utc": "2026-08-04T16:36:22.153894+00:00",
          "captured_via_provider_id": "pegelonline_de",
          "country_code": "DE",
          "current_usable": true,
          "measurement_date": null,
          "measurement_datetime_local": "2026-08-04T18:30:00+02:00",
          "measurement_datetime_utc": "2026-08-04T16:30:00+00:00",
          "measurement_time_original": "2026-08-04T18:30:00+02:00",
          "measurement_timezone": "source ISO-8601 offset",
          "operator_provider_id": "pegelonline_de",
          "parameter": "water_level",
          "source_file_sha256": "f226fa612eab92f06f9773b3853abac9bfdc7cb5a9bce4d37dcb8b6cfaf6ae57",
          "source_id": "pegelonline_de",
          "source_provider_id": "pegelonline_de",
          "source_quality_code": "source_unit=cm;low;normal",
          "source_station_id": "7644f1d7-3198-4313-9340-abefd459a4f3",
          "source_status": "complete",
          "source_url": "https://www.pegelonline.wsv.de/webservices/rest-api/v2/stations/7644f1d7-3198-4313-9340-abefd459a4f3.json",
          "stale": false,
          "station_id": "de-7644f1d7-3198-4313-9340-abefd459a4f3",
          "station_name": "SCHWABELWEIS",
          "station_name_local": "SCHWABELWEIS",
          "unit": "cm",
          "value": 276.0,
          "variation_value": null,
          "variation_window_hours": null
        },
        "water_temperature": {
          "canonical_quality_flag": "observed",
          "captured_at_utc": "2026-08-04T16:36:22.153894+00:00",
          "captured_via_provider_id": "pegelonline_de",
          "country_code": "DE",
          "current_usable": true,
          "measurement_date": null,
          "measurement_datetime_local": "2026-08-04T18:00:00+02:00",
          "measurement_datetime_utc": "2026-08-04T16:00:00+00:00",
          "measurement_time_original": "2026-08-04T18:00:00+02:00",
          "measurement_timezone": "source ISO-8601 offset",
          "operator_provider_id": "pegelonline_de",
          "parameter": "water_temperature",
          "source_file_sha256": "f226fa612eab92f06f9773b3853abac9bfdc7cb5a9bce4d37dcb8b6cfaf6ae57",
          "source_id": "pegelonline_de",
          "source_provider_id": "pegelonline_de",
          "source_quality_code": "source_unit=°C",
          "source_station_id": "7644f1d7-3198-4313-9340-abefd459a4f3",
          "source_status": "complete",
          "source_url": "https://www.pegelonline.wsv.de/webservices/rest-api/v2/stations/7644f1d7-3198-4313-9340-abefd459a4f3.json",
          "stale": false,
          "station_id": "de-7644f1d7-3198-4313-9340-abefd459a4f3",
          "station_name": "SCHWABELWEIS",
          "station_name_local": "SCHWABELWEIS",
          "unit": "degC",
          "value": 25.9,
          "variation_value": null,
          "variation_window_hours": null
        }
      },
      "type": "Feature"
    },
    {
      "geometry": {
        "coordinates": [
          12.101827,
          49.021359
        ],
        "type": "Point"
      },
      "properties": {
        "capture_datetime_utc": "2026-08-04T16:36:22.153894+00:00",
        "country_code": "DE",
        "discharge": null,
        "river_km": 2379.3,
        "river_name": "Danube",
        "source_id": "pegelonline_de",
        "source_label": "WSV PEGELONLINE",
        "source_status": "complete",
        "source_url": "https://www.pegelonline.wsv.de/webservices/rest-api/v2/stations/eebd633a-3af0-4b79-83d5-b6490765e06c.json",
        "station_id": "de-eebd633a-3af0-4b79-83d5-b6490765e06c",
        "station_name": "REGENSBURG EISERNE BRUCKE",
        "station_name_local": "REGENSBURG EISERNE BRÜCKE",
        "station_slug": "de-regensburg-eiserne-brucke",
        "station_type": "gauge",
        "water_level": {
          "canonical_quality_flag": "observed",
          "captured_at_utc": "2026-08-04T16:36:22.153894+00:00",
          "captured_via_provider_id": "pegelonline_de",
          "country_code": "DE",
          "current_usable": true,
          "measurement_date": null,
          "measurement_datetime_local": "2026-08-04T18:30:00+02:00",
          "measurement_datetime_utc": "2026-08-04T16:30:00+00:00",
          "measurement_time_original": "2026-08-04T18:30:00+02:00",
          "measurement_timezone": "source ISO-8601 offset",
          "operator_provider_id": "pegelonline_de",
          "parameter": "water_level",
          "source_file_sha256": "f226fa612eab92f06f9773b3853abac9bfdc7cb5a9bce4d37dcb8b6cfaf6ae57",
          "source_id": "pegelonline_de",
          "source_provider_id": "pegelonline_de",
          "source_quality_code": "source_unit=cm;low;unknown",
          "source_station_id": "eebd633a-3af0-4b79-83d5-b6490765e06c",
          "source_status": "complete",
          "source_url": "https://www.pegelonline.wsv.de/webservices/rest-api/v2/stations/eebd633a-3af0-4b79-83d5-b6490765e06c.json",
          "stale": false,
          "station_id": "de-eebd633a-3af0-4b79-83d5-b6490765e06c",
          "station_name": "REGENSBURG EISERNE BRUCKE",
          "station_name_local": "REGENSBURG EISERNE BRÜCKE",
          "unit": "cm",
          "value": 178.0,
          "variation_value": null,
          "variation_window_hours": null
        },
        "water_temperature": null
      },
      "type": "Feature"
    },
    {
      "geometry": {
        "coordinates": [
          12.014893,
          48.946969
        ],
        "type": "Point"
      },
      "properties": {
        "capture_datetime_utc": "2026-08-04T16:36:22.153894+00:00",
        "country_code": "DE",
        "discharge": {
          "canonical_quality_flag": "observed",
          "captured_at_utc": "2026-08-04T16:36:22.153894+00:00",
          "captured_via_provider_id": "pegelonline_de",
          "country_code": "DE",
          "current_usable": true,
          "measurement_date": null,
          "measurement_datetime_local": "2026-08-04T18:00:00+02:00",
          "measurement_datetime_utc": "2026-08-04T16:00:00+00:00",
          "measurement_time_original": "2026-08-04T18:00:00+02:00",
          "measurement_timezone": "source ISO-8601 offset",
          "operator_provider_id": "pegelonline_de",
          "parameter": "discharge",
          "source_file_sha256": "f226fa612eab92f06f9773b3853abac9bfdc7cb5a9bce4d37dcb8b6cfaf6ae57",
          "source_id": "pegelonline_de",
          "source_provider_id": "pegelonline_de",
          "source_quality_code": "source_unit=m³/s",
          "source_station_id": "e476bcad-b898-4f68-9c26-4f1a1159dff6",
          "source_status": "complete",
          "source_url": "https://www.pegelonline.wsv.de/webservices/rest-api/v2/stations/e476bcad-b898-4f68-9c26-4f1a1159dff6.json",
          "stale": false,
          "station_id": "de-e476bcad-b898-4f68-9c26-4f1a1159dff6",
          "station_name": "OBERNDORF",
          "station_name_local": "OBERNDORF",
          "unit": "m3/s",
          "value": 112.0,
          "variation_value": null,
          "variation_window_hours": null
        },
        "river_km": 2397.4,
        "river_name": "Danube",
        "source_id": "pegelonline_de",
        "source_label": "WSV PEGELONLINE",
        "source_status": "complete",
        "source_url": "https://www.pegelonline.wsv.de/webservices/rest-api/v2/stations/e476bcad-b898-4f68-9c26-4f1a1159dff6.json",
        "station_id": "de-e476bcad-b898-4f68-9c26-4f1a1159dff6",
        "station_name": "OBERNDORF",
        "station_name_local": "OBERNDORF",
        "station_slug": "de-oberndorf",
        "station_type": "gauge",
        "water_level": {
          "canonical_quality_flag": "observed",
          "captured_at_utc": "2026-08-04T16:36:22.153894+00:00",
          "captured_via_provider_id": "pegelonline_de",
          "country_code": "DE",
          "current_usable": true,
          "measurement_date": null,
          "measurement_datetime_local": "2026-08-04T18:30:00+02:00",
          "measurement_datetime_utc": "2026-08-04T16:30:00+00:00",
          "measurement_time_original": "2026-08-04T18:30:00+02:00",
          "measurement_timezone": "source ISO-8601 offset",
          "operator_provider_id": "pegelonline_de",
          "parameter": "water_level",
          "source_file_sha256": "f226fa612eab92f06f9773b3853abac9bfdc7cb5a9bce4d37dcb8b6cfaf6ae57",
          "source_id": "pegelonline_de",
          "source_provider_id": "pegelonline_de",
          "source_quality_code": "source_unit=cm;low;normal",
          "source_station_id": "e476bcad-b898-4f68-9c26-4f1a1159dff6",
          "source_status": "complete",
          "source_url": "https://www.pegelonline.wsv.de/webservices/rest-api/v2/stations/e476bcad-b898-4f68-9c26-4f1a1159dff6.json",
          "stale": false,
          "station_id": "de-e476bcad-b898-4f68-9c26-4f1a1159dff6",
          "station_name": "OBERNDORF",
          "station_name_local": "OBERNDORF",
          "unit": "cm",
          "value": 143.0,
          "variation_value": null,
          "variation_window_hours": null
        },
        "water_temperature": {
          "canonical_quality_flag": "observed",
          "captured_at_utc": "2026-08-04T16:36:22.153894+00:00",
          "captured_via_provider_id": "pegelonline_de",
          "country_code": "DE",
          "current_usable": true,
          "measurement_date": null,
          "measurement_datetime_local": "2026-08-04T18:00:00+02:00",
          "measurement_datetime_utc": "2026-08-04T16:00:00+00:00",
          "measurement_time_original": "2026-08-04T18:00:00+02:00",
          "measurement_timezone": "source ISO-8601 offset",
          "operator_provider_id": "pegelonline_de",
          "parameter": "water_temperature",
          "source_file_sha256": "f226fa612eab92f06f9773b3853abac9bfdc7cb5a9bce4d37dcb8b6cfaf6ae57",
          "source_id": "pegelonline_de",
          "source_provider_id": "pegelonline_de",
          "source_quality_code": "source_unit=°C",
          "source_station_id": "e476bcad-b898-4f68-9c26-4f1a1159dff6",
          "source_status": "complete",
          "source_url": "https://www.pegelonline.wsv.de/webservices/rest-api/v2/stations/e476bcad-b898-4f68-9c26-4f1a1159dff6.json",
          "stale": false,
          "station_id": "de-e476bcad-b898-4f68-9c26-4f1a1159dff6",
          "station_name": "OBERNDORF",
          "station_name_local": "OBERNDORF",
          "unit": "degC",
          "value": 24.9,
          "variation_value": null,
          "variation_window_hours": null
        }
      },
      "type": "Feature"
    },
    {
      "geometry": {
        "coordinates": [
          11.93206,
          48.911858
        ],
        "type": "Point"
      },
      "properties": {
        "capture_datetime_utc": "2026-08-04T16:36:22.153894+00:00",
        "country_code": "DE",
        "discharge": null,
        "river_km": 2409.7,
        "river_name": "Danube",
        "source_id": "pegelonline_de",
        "source_label": "WSV PEGELONLINE",
        "source_status": "complete",
        "source_url": "https://www.pegelonline.wsv.de/webservices/rest-api/v2/stations/c9409937-b794-4b69-b36b-38467daab09a.json",
        "station_id": "de-c9409937-b794-4b69-b36b-38467daab09a",
        "station_name": "KELHEIMWINZER",
        "station_name_local": "KELHEIMWINZER",
        "station_slug": "de-kelheimwinzer",
        "station_type": "gauge",
        "water_level": {
          "canonical_quality_flag": "observed",
          "captured_at_utc": "2026-08-04T16:36:22.153894+00:00",
          "captured_via_provider_id": "pegelonline_de",
          "country_code": "DE",
          "current_usable": true,
          "measurement_date": null,
          "measurement_datetime_local": "2026-08-04T18:30:00+02:00",
          "measurement_datetime_utc": "2026-08-04T16:30:00+00:00",
          "measurement_time_original": "2026-08-04T18:30:00+02:00",
          "measurement_timezone": "source ISO-8601 offset",
          "operator_provider_id": "pegelonline_de",
          "parameter": "water_level",
          "source_file_sha256": "f226fa612eab92f06f9773b3853abac9bfdc7cb5a9bce4d37dcb8b6cfaf6ae57",
          "source_id": "pegelonline_de",
          "source_provider_id": "pegelonline_de",
          "source_quality_code": "source_unit=cm;low;unknown",
          "source_station_id": "c9409937-b794-4b69-b36b-38467daab09a",
          "source_status": "complete",
          "source_url": "https://www.pegelonline.wsv.de/webservices/rest-api/v2/stations/c9409937-b794-4b69-b36b-38467daab09a.json",
          "stale": false,
          "station_id": "de-c9409937-b794-4b69-b36b-38467daab09a",
          "station_name": "KELHEIMWINZER",
          "station_name_local": "KELHEIMWINZER",
          "unit": "cm",
          "value": 250.0,
          "variation_value": null,
          "variation_window_hours": null
        },
        "water_temperature": null
      },
      "type": "Feature"
    },
    {
      "geometry": {
        "coordinates": [
          11.864627,
          48.916603
        ],
        "type": "Point"
      },
      "properties": {
        "capture_datetime_utc": "2026-08-04T16:36:22.153894+00:00",
        "country_code": "DE",
        "discharge": null,
        "river_km": 2414.8,
        "river_name": "Danube",
        "source_id": "pegelonline_de",
        "source_label": "WSV PEGELONLINE",
        "source_status": "complete",
        "source_url": "https://www.pegelonline.wsv.de/webservices/rest-api/v2/stations/296fc6d4-3c59-45f6-9424-ff57d1180b30.json",
        "station_id": "de-296fc6d4-3c59-45f6-9424-ff57d1180b30",
        "station_name": "KELHEIM DONAU",
        "station_name_local": "KELHEIM DONAU",
        "station_slug": "de-kelheim-donau",
        "station_type": "gauge",
        "water_level": {
          "canonical_quality_flag": "observed",
          "captured_at_utc": "2026-08-04T16:36:22.153894+00:00",
          "captured_via_provider_id": "pegelonline_de",
          "country_code": "DE",
          "current_usable": true,
          "measurement_date": null,
          "measurement_datetime_local": "2026-08-04T18:15:00+02:00",
          "measurement_datetime_utc": "2026-08-04T16:15:00+00:00",
          "measurement_time_original": "2026-08-04T18:15:00+02:00",
          "measurement_timezone": "source ISO-8601 offset",
          "operator_provider_id": "pegelonline_de",
          "parameter": "water_level",
          "source_file_sha256": "f226fa612eab92f06f9773b3853abac9bfdc7cb5a9bce4d37dcb8b6cfaf6ae57",
          "source_id": "pegelonline_de",
          "source_provider_id": "pegelonline_de",
          "source_quality_code": "source_unit=cm;unknown;unknown",
          "source_station_id": "296fc6d4-3c59-45f6-9424-ff57d1180b30",
          "source_status": "complete",
          "source_url": "https://www.pegelonline.wsv.de/webservices/rest-api/v2/stations/296fc6d4-3c59-45f6-9424-ff57d1180b30.json",
          "stale": false,
          "station_id": "de-296fc6d4-3c59-45f6-9424-ff57d1180b30",
          "station_name": "KELHEIM DONAU",
          "station_name_local": "KELHEIM DONAU",
          "unit": "cm",
          "value": 180.0,
          "variation_value": null,
          "variation_window_hours": null
        },
        "water_temperature": null
      },
      "type": "Feature"
    },
    {
      "geometry": {
        "coordinates": [
          11.426054,
          48.757414
        ],
        "type": "Point"
      },
      "properties": {
        "capture_datetime_utc": "2026-08-04T16:36:22.153894+00:00",
        "country_code": "DE",
        "discharge": null,
        "river_km": 2458.3,
        "river_name": "Danube",
        "source_id": "pegelonline_de",
        "source_label": "WSV PEGELONLINE",
        "source_status": "complete",
        "source_url": "https://www.pegelonline.wsv.de/webservices/rest-api/v2/stations/824a046b-9ca3-4db8-993d-e755122854e0.json",
        "station_id": "de-824a046b-9ca3-4db8-993d-e755122854e0",
        "station_name": "INGOLSTADT LUITPOLDSTRASSE",
        "station_name_local": "INGOLSTADT LUITPOLDSTRASSE",
        "station_slug": "de-ingolstadt-luitpoldstrasse",
        "station_type": "gauge",
        "water_level": {
          "canonical_quality_flag": "observed",
          "captured_at_utc": "2026-08-04T16:36:22.153894+00:00",
          "captured_via_provider_id": "pegelonline_de",
          "country_code": "DE",
          "current_usable": true,
          "measurement_date": null,
          "measurement_datetime_local": "2026-08-04T18:15:00+02:00",
          "measurement_datetime_utc": "2026-08-04T16:15:00+00:00",
          "measurement_time_original": "2026-08-04T18:15:00+02:00",
          "measurement_timezone": "source ISO-8601 offset",
          "operator_provider_id": "pegelonline_de",
          "parameter": "water_level",
          "source_file_sha256": "f226fa612eab92f06f9773b3853abac9bfdc7cb5a9bce4d37dcb8b6cfaf6ae57",
          "source_id": "pegelonline_de",
          "source_provider_id": "pegelonline_de",
          "source_quality_code": "source_unit=cm;unknown;unknown",
          "source_station_id": "824a046b-9ca3-4db8-993d-e755122854e0",
          "source_status": "complete",
          "source_url": "https://www.pegelonline.wsv.de/webservices/rest-api/v2/stations/824a046b-9ca3-4db8-993d-e755122854e0.json",
          "stale": false,
          "station_id": "de-824a046b-9ca3-4db8-993d-e755122854e0",
          "station_name": "INGOLSTADT LUITPOLDSTRASSE",
          "station_name_local": "INGOLSTADT LUITPOLDSTRASSE",
          "unit": "cm",
          "value": 125.0,
          "variation_value": null,
          "variation_window_hours": null
        },
        "water_temperature": null
      },
      "type": "Feature"
    },
    {
      "geometry": {
        "coordinates": [
          13.5032,
          48.5819
        ],
        "type": "Point"
      },
      "properties": {
        "capture_datetime_utc": "2026-08-04T16:36:24.814447+00:00",
        "country_code": "AT",
        "discharge": null,
        "river_km": 2223.05,
        "river_name": "Danube",
        "source_id": "viadonau_at",
        "source_label": "viadonau DoRIS",
        "source_status": "partial",
        "source_url": "https://opendata2.doris-info.at/doris/api/1.0/gauge/list",
        "station_id": "at-atfrb00001g000122231",
        "station_name": "Achleiten",
        "station_name_local": "Achleiten",
        "station_slug": "at-achleiten",
        "station_type": "gauge",
        "water_level": {
          "canonical_quality_flag": "observed",
          "captured_at_utc": "2026-08-04T16:36:24.814447+00:00",
          "captured_via_provider_id": "viadonau_at",
          "country_code": "AT",
          "current_usable": true,
          "measurement_date": null,
          "measurement_datetime_local": "2026-08-04T18:15:00+02:00",
          "measurement_datetime_utc": "2026-08-04T16:15:00+00:00",
          "measurement_time_original": "1785860100000",
          "measurement_timezone": "Europe/Vienna",
          "operator_provider_id": "viadonau_at",
          "parameter": "water_level",
          "source_file_sha256": "7fc55dd0656f7d05b0736ed64058c0443dfcc922f435e3ee5ba44c9ac9b2e6ed",
          "source_id": "viadonau_at",
          "source_provider_id": "viadonau_at",
          "source_quality_code": null,
          "source_station_id": "ATFRB00001G000122231",
          "source_status": "partial",
          "source_url": "https://opendata2.doris-info.at/doris/api/1.0/gauge/list",
          "stale": false,
          "station_id": "at-atfrb00001g000122231",
          "station_name": "Achleiten",
          "station_name_local": "Achleiten",
          "unit": "cm",
          "value": 248.0,
          "variation_value": -1.0,
          "variation_window_hours": 24
        },
        "water_temperature": null
      },
      "type": "Feature"
    },
    {
      "geometry": {
        "coordinates": [
          14.1813,
          48.3298
        ],
        "type": "Point"
      },
      "properties": {
        "capture_datetime_utc": "2026-08-04T16:36:24.814447+00:00",
        "country_code": "AT",
        "discharge": null,
        "river_km": 2144.05,
        "river_name": "Danube",
        "source_id": "viadonau_at",
        "source_label": "viadonau DoRIS",
        "source_status": "partial",
        "source_url": "https://opendata2.doris-info.at/doris/api/1.0/gauge/list",
        "station_id": "at-atwhe00001g000221440",
        "station_name": "Wilhering",
        "station_name_local": "Wilhering",
        "station_slug": "at-wilhering",
        "station_type": "gauge",
        "water_level": {
          "canonical_quality_flag": "observed",
          "captured_at_utc": "2026-08-04T16:36:24.814447+00:00",
          "captured_via_provider_id": "viadonau_at",
          "country_code": "AT",
          "current_usable": true,
          "measurement_date": null,
          "measurement_datetime_local": "2026-08-04T18:15:00+02:00",
          "measurement_datetime_utc": "2026-08-04T16:15:00+00:00",
          "measurement_time_original": "1785860100000",
          "measurement_timezone": "Europe/Vienna",
          "operator_provider_id": "viadonau_at",
          "parameter": "water_level",
          "source_file_sha256": "7fc55dd0656f7d05b0736ed64058c0443dfcc922f435e3ee5ba44c9ac9b2e6ed",
          "source_id": "viadonau_at",
          "source_provider_id": "viadonau_at",
          "source_quality_code": null,
          "source_station_id": "ATWHE00001G000221440",
          "source_status": "partial",
          "source_url": "https://opendata2.doris-info.at/doris/api/1.0/gauge/list",
          "stale": false,
          "station_id": "at-atwhe00001g000221440",
          "station_name": "Wilhering",
          "station_name_local": "Wilhering",
          "unit": "cm",
          "value": 251.0,
          "variation_value": 4.0,
          "variation_window_hours": 24
        },
        "water_temperature": null
      },
      "type": "Feature"
    },
    {
      "geometry": {
        "coordinates": [
          14.5325,
          48.2391
        ],
        "type": "Point"
      },
      "properties": {
        "capture_datetime_utc": "2026-08-04T16:36:24.814447+00:00",
        "country_code": "AT",
        "discharge": null,
        "river_km": 2110.98,
        "river_name": "Danube",
        "source_id": "viadonau_at",
        "source_label": "viadonau DoRIS",
        "source_status": "partial",
        "source_url": "https://opendata2.doris-info.at/doris/api/1.0/gauge/list",
        "station_id": "at-atmau00001g000321109",
        "station_name": "Mauthausen",
        "station_name_local": "Mauthausen",
        "station_slug": "at-mauthausen",
        "station_type": "gauge",
        "water_level": {
          "canonical_quality_flag": "observed",
          "captured_at_utc": "2026-08-04T16:36:24.814447+00:00",
          "captured_via_provider_id": "viadonau_at",
          "country_code": "AT",
          "current_usable": true,
          "measurement_date": null,
          "measurement_datetime_local": "2026-08-04T18:15:00+02:00",
          "measurement_datetime_utc": "2026-08-04T16:15:00+00:00",
          "measurement_time_original": "1785860100000",
          "measurement_timezone": "Europe/Vienna",
          "operator_provider_id": "viadonau_at",
          "parameter": "water_level",
          "source_file_sha256": "7fc55dd0656f7d05b0736ed64058c0443dfcc922f435e3ee5ba44c9ac9b2e6ed",
          "source_id": "viadonau_at",
          "source_provider_id": "viadonau_at",
          "source_quality_code": null,
          "source_station_id": "ATMAU00001G000321109",
          "source_status": "partial",
          "source_url": "https://opendata2.doris-info.at/doris/api/1.0/gauge/list",
          "stale": false,
          "station_id": "at-atmau00001g000321109",
          "station_name": "Mauthausen",
          "station_name_local": "Mauthausen",
          "unit": "cm",
          "value": 425.0,
          "variation_value": 1.0,
          "variation_window_hours": 24
        },
        "water_temperature": null
      },
      "type": "Feature"
    },
    {
      "geometry": {
        "coordinates": [
          14.8567,
          48.2272
        ],
        "type": "Point"
      },
      "properties": {
        "capture_datetime_utc": "2026-08-04T16:36:24.814447+00:00",
        "country_code": "AT",
        "discharge": null,
        "river_km": 2079.1,
        "river_name": "Danube",
        "source_id": "viadonau_at",
        "source_label": "viadonau DoRIS",
        "source_status": "partial",
        "source_url": "https://opendata2.doris-info.at/doris/api/1.0/gauge/list",
        "station_id": "at-atgrn00001g000820791",
        "station_name": "Grein",
        "station_name_local": "Grein",
        "station_slug": "at-grein",
        "station_type": "gauge",
        "water_level": {
          "canonical_quality_flag": "observed",
          "captured_at_utc": "2026-08-04T16:36:24.814447+00:00",
          "captured_via_provider_id": "viadonau_at",
          "country_code": "AT",
          "current_usable": true,
          "measurement_date": null,
          "measurement_datetime_local": "2026-08-04T18:15:00+02:00",
          "measurement_datetime_utc": "2026-08-04T16:15:00+00:00",
          "measurement_time_original": "1785860100000",
          "measurement_timezone": "Europe/Vienna",
          "operator_provider_id": "viadonau_at",
          "parameter": "water_level",
          "source_file_sha256": "7fc55dd0656f7d05b0736ed64058c0443dfcc922f435e3ee5ba44c9ac9b2e6ed",
          "source_id": "viadonau_at",
          "source_provider_id": "viadonau_at",
          "source_quality_code": null,
          "source_station_id": "ATGRN00001G000820791",
          "source_status": "partial",
          "source_url": "https://opendata2.doris-info.at/doris/api/1.0/gauge/list",
          "stale": false,
          "station_id": "at-atgrn00001g000820791",
          "station_name": "Grein",
          "station_name_local": "Grein",
          "unit": "cm",
          "value": 708.0,
          "variation_value": -2.0,
          "variation_window_hours": 24
        },
        "water_temperature": null
      },
      "type": "Feature"
    },
    {
      "geometry": {
        "coordinates": [
          15.4626,
          48.3823
        ],
        "type": "Point"
      },
      "properties": {
        "capture_datetime_utc": "2026-08-04T16:36:24.814447+00:00",
        "country_code": "AT",
        "discharge": null,
        "river_km": 2015.21,
        "river_name": "Danube",
        "source_id": "viadonau_at",
        "source_label": "viadonau DoRIS",
        "source_status": "partial",
        "source_url": "https://opendata2.doris-info.at/doris/api/1.0/gauge/list",
        "station_id": "at-atroa00001g000520152",
        "station_name": "Kienstock",
        "station_name_local": "Kienstock",
        "station_slug": "at-kienstock",
        "station_type": "gauge",
        "water_level": {
          "canonical_quality_flag": "observed",
          "captured_at_utc": "2026-08-04T16:36:24.814447+00:00",
          "captured_via_provider_id": "viadonau_at",
          "country_code": "AT",
          "current_usable": true,
          "measurement_date": null,
          "measurement_datetime_local": "2026-08-04T18:15:00+02:00",
          "measurement_datetime_utc": "2026-08-04T16:15:00+00:00",
          "measurement_time_original": "1785860100000",
          "measurement_timezone": "Europe/Vienna",
          "operator_provider_id": "viadonau_at",
          "parameter": "water_level",
          "source_file_sha256": "7fc55dd0656f7d05b0736ed64058c0443dfcc922f435e3ee5ba44c9ac9b2e6ed",
          "source_id": "viadonau_at",
          "source_provider_id": "viadonau_at",
          "source_quality_code": null,
          "source_station_id": "ATROA00001G000520152",
          "source_status": "partial",
          "source_url": "https://opendata2.doris-info.at/doris/api/1.0/gauge/list",
          "stale": false,
          "station_id": "at-atroa00001g000520152",
          "station_name": "Kienstock",
          "station_name_local": "Kienstock",
          "unit": "cm",
          "value": 130.0,
          "variation_value": 1.0,
          "variation_window_hours": 24
        },
        "water_temperature": null
      },
      "type": "Feature"
    },
    {
      "geometry": {
        "coordinates": [
          15.5184,
          48.3978
        ],
        "type": "Point"
      },
      "properties": {
        "capture_datetime_utc": "2026-08-04T16:36:24.814447+00:00",
        "country_code": "AT",
        "discharge": null,
        "river_km": 2009.15,
        "river_name": "Danube",
        "source_id": "viadonau_at",
        "source_label": "viadonau DoRIS",
        "source_status": "partial",
        "source_url": "https://opendata2.doris-info.at/doris/api/1.0/gauge/list",
        "station_id": "at-atdue00001g001420091",
        "station_name": "Durnstein",
        "station_name_local": "Dürnstein",
        "station_slug": "at-durnstein",
        "station_type": "gauge",
        "water_level": {
          "canonical_quality_flag": "observed",
          "captured_at_utc": "2026-08-04T16:36:24.814447+00:00",
          "captured_via_provider_id": "viadonau_at",
          "country_code": "AT",
          "current_usable": true,
          "measurement_date": null,
          "measurement_datetime_local": "2026-08-04T18:15:00+02:00",
          "measurement_datetime_utc": "2026-08-04T16:15:00+00:00",
          "measurement_time_original": "1785860100000",
          "measurement_timezone": "Europe/Vienna",
          "operator_provider_id": "viadonau_at",
          "parameter": "water_level",
          "source_file_sha256": "7fc55dd0656f7d05b0736ed64058c0443dfcc922f435e3ee5ba44c9ac9b2e6ed",
          "source_id": "viadonau_at",
          "source_provider_id": "viadonau_at",
          "source_quality_code": null,
          "source_station_id": "ATDUE00001G001420091",
          "source_status": "partial",
          "source_url": "https://opendata2.doris-info.at/doris/api/1.0/gauge/list",
          "stale": false,
          "station_id": "at-atdue00001g001420091",
          "station_name": "Durnstein",
          "station_name_local": "Dürnstein",
          "unit": "cm",
          "value": 284.0,
          "variation_value": -1.0,
          "variation_window_hours": 24
        },
        "water_temperature": null
      },
      "type": "Feature"
    },
    {
      "geometry": {
        "coordinates": [
          16.3342,
          48.3273
        ],
        "type": "Point"
      },
      "properties": {
        "capture_datetime_utc": "2026-08-04T16:36:24.814447+00:00",
        "country_code": "AT",
        "discharge": null,
        "river_km": 1941.46,
        "river_name": "Danube",
        "source_id": "viadonau_at",
        "source_label": "viadonau DoRIS",
        "source_status": "partial",
        "source_url": "https://opendata2.doris-info.at/doris/api/1.0/gauge/list",
        "station_id": "at-atkbg00001g000619415",
        "station_name": "Korneuburg",
        "station_name_local": "Korneuburg",
        "station_slug": "at-korneuburg",
        "station_type": "gauge",
        "water_level": {
          "canonical_quality_flag": "observed",
          "captured_at_utc": "2026-08-04T16:36:24.814447+00:00",
          "captured_via_provider_id": "viadonau_at",
          "country_code": "AT",
          "current_usable": true,
          "measurement_date": null,
          "measurement_datetime_local": "2026-08-04T18:15:00+02:00",
          "measurement_datetime_utc": "2026-08-04T16:15:00+00:00",
          "measurement_time_original": "1785860100000",
          "measurement_timezone": "Europe/Vienna",
          "operator_provider_id": "viadonau_at",
          "parameter": "water_level",
          "source_file_sha256": "7fc55dd0656f7d05b0736ed64058c0443dfcc922f435e3ee5ba44c9ac9b2e6ed",
          "source_id": "viadonau_at",
          "source_provider_id": "viadonau_at",
          "source_quality_code": null,
          "source_station_id": "ATKBG00001G000619415",
          "source_status": "partial",
          "source_url": "https://opendata2.doris-info.at/doris/api/1.0/gauge/list",
          "stale": false,
          "station_id": "at-atkbg00001g000619415",
          "station_name": "Korneuburg",
          "station_name_local": "Korneuburg",
          "unit": "cm",
          "value": 186.0,
          "variation_value": 0.0,
          "variation_window_hours": 24
        },
        "water_temperature": null
      },
      "type": "Feature"
    },
    {
      "geometry": {
        "coordinates": [
          16.8056,
          48.1153
        ],
        "type": "Point"
      },
      "properties": {
        "capture_datetime_utc": "2026-08-04T16:36:24.814447+00:00",
        "country_code": "AT",
        "discharge": null,
        "river_km": 1894.72,
        "river_name": "Danube",
        "source_id": "viadonau_at",
        "source_label": "viadonau DoRIS",
        "source_status": "partial",
        "source_url": "https://opendata2.doris-info.at/doris/api/1.0/gauge/list",
        "station_id": "at-atpec00001g000718947",
        "station_name": "Wildungsmauer",
        "station_name_local": "Wildungsmauer",
        "station_slug": "at-wildungsmauer",
        "station_type": "gauge",
        "water_level": {
          "canonical_quality_flag": "observed",
          "captured_at_utc": "2026-08-04T16:36:24.814447+00:00",
          "captured_via_provider_id": "viadonau_at",
          "country_code": "AT",
          "current_usable": true,
          "measurement_date": null,
          "measurement_datetime_local": "2026-08-04T18:15:00+02:00",
          "measurement_datetime_utc": "2026-08-04T16:15:00+00:00",
          "measurement_time_original": "1785860100000",
          "measurement_timezone": "Europe/Vienna",
          "operator_provider_id": "viadonau_at",
          "parameter": "water_level",
          "source_file_sha256": "7fc55dd0656f7d05b0736ed64058c0443dfcc922f435e3ee5ba44c9ac9b2e6ed",
          "source_id": "viadonau_at",
          "source_provider_id": "viadonau_at",
          "source_quality_code": null,
          "source_station_id": "ATPEC00001G000718947",
          "source_status": "partial",
          "source_url": "https://opendata2.doris-info.at/doris/api/1.0/gauge/list",
          "stale": false,
          "station_id": "at-atpec00001g000718947",
          "station_name": "Wildungsmauer",
          "station_name_local": "Wildungsmauer",
          "unit": "cm",
          "value": 102.0,
          "variation_value": 1.0,
          "variation_window_hours": 24
        },
        "water_temperature": null
      },
      "type": "Feature"
    },
    {
      "geometry": {
        "coordinates": [
          16.9837,
          48.1665
        ],
        "type": "Point"
      },
      "properties": {
        "capture_datetime_utc": "2026-08-04T16:36:24.814447+00:00",
        "country_code": "AT",
        "discharge": null,
        "river_km": 1879.25,
        "river_name": "Danube",
        "source_id": "viadonau_at",
        "source_label": "viadonau DoRIS",
        "source_status": "partial",
        "source_url": "https://opendata2.doris-info.at/doris/api/1.0/gauge/list",
        "station_id": "at-athia00001g001218792",
        "station_name": "Thebnerstral",
        "station_name_local": "Thebnerstraßl",
        "station_slug": "at-thebnerstral",
        "station_type": "gauge",
        "water_level": {
          "canonical_quality_flag": "observed",
          "captured_at_utc": "2026-08-04T16:36:24.814447+00:00",
          "captured_via_provider_id": "viadonau_at",
          "country_code": "AT",
          "current_usable": true,
          "measurement_date": null,
          "measurement_datetime_local": "2026-08-04T18:15:00+02:00",
          "measurement_datetime_utc": "2026-08-04T16:15:00+00:00",
          "measurement_time_original": "1785860100000",
          "measurement_timezone": "Europe/Vienna",
          "operator_provider_id": "viadonau_at",
          "parameter": "water_level",
          "source_file_sha256": "7fc55dd0656f7d05b0736ed64058c0443dfcc922f435e3ee5ba44c9ac9b2e6ed",
          "source_id": "viadonau_at",
          "source_provider_id": "viadonau_at",
          "source_quality_code": null,
          "source_station_id": "ATHIA00001G001218792",
          "source_status": "partial",
          "source_url": "https://opendata2.doris-info.at/doris/api/1.0/gauge/list",
          "stale": false,
          "station_id": "at-athia00001g001218792",
          "station_name": "Thebnerstral",
          "station_name_local": "Thebnerstraßl",
          "unit": "cm",
          "value": 77.0,
          "variation_value": -3.0,
          "variation_window_hours": 24
        },
        "water_temperature": null
      },
      "type": "Feature"
    }
  ],
  "type": "FeatureCollection"
}
