{"type":"FeatureCollection","features":[{"type":"Feature","id":"657e4b68-9e17-4102-a240-b2cf2f34ba27","geometry":{"type":"Point","coordinates":[29.652728883222,45.15541425]},"properties":{"station_id":"657e4b68-9e17-4102-a240-b2cf2f34ba27","slug":"sulina","source_name":"Sulina","display_name":"Sulina","river_km":0,"level_cm":58,"variation_cm_24h":-2,"water_temperature_c":27.5,"measurement_datetime":"2026-08-07T03:00:00+03:00","quality_flag":"valid"}},{"type":"Feature","id":"ec11d8f6-34c5-4d2d-afc2-4171b759c56a","geometry":{"type":"Point","coordinates":[28.8016348,45.177518]},"properties":{"station_id":"ec11d8f6-34c5-4d2d-afc2-4171b759c56a","slug":"tulcea","source_name":"Tulcea","display_name":"Tulcea","river_km":71,"level_cm":22,"variation_cm_24h":-1,"water_temperature_c":27.5,"measurement_datetime":"2026-08-07T03:00:00+03:00","quality_flag":"valid"}},{"type":"Feature","id":"733c61e2-3083-4766-9b49-9c51b6e6c7cc","geometry":{"type":"Point","coordinates":[28.4571456,45.2721887]},"properties":{"station_id":"733c61e2-3083-4766-9b49-9c51b6e6c7cc","slug":"isaccea","source_name":"Isaccea","display_name":"Isaccea","river_km":103,"level_cm":25,"variation_cm_24h":0,"water_temperature_c":27.5,"measurement_datetime":"2026-08-07T03:00:00+03:00","quality_flag":"valid"}},{"type":"Feature","id":"c726848a-12e0-4961-be36-8a8d29ce9106","geometry":{"type":"Point","coordinates":[28.0549395,45.4338215]},"properties":{"station_id":"c726848a-12e0-4961-be36-8a8d29ce9106","slug":"galati","source_name":"Galati","display_name":"Galați","river_km":150,"level_cm":27,"variation_cm_24h":0,"water_temperature_c":27.5,"measurement_datetime":"2026-08-07T03:00:00+03:00","quality_flag":"valid"}},{"type":"Feature","id":"cc4f13d6-eccf-48bf-a3b2-2ed3b60e1f63","geometry":{"type":"Point","coordinates":[27.9742932,45.2716092]},"properties":{"station_id":"cc4f13d6-eccf-48bf-a3b2-2ed3b60e1f63","slug":"braila","source_name":"Braila","display_name":"Brăila","river_km":170,"level_cm":4,"variation_cm_24h":0,"water_temperature_c":28,"measurement_datetime":"2026-08-07T03:00:00+03:00","quality_flag":"valid"}},{"type":"Feature","id":"434d580b-1bc9-4210-aea9-3d263e8251fe","geometry":{"type":"Point","coordinates":[27.9513766,44.6845557]},"properties":{"station_id":"434d580b-1bc9-4210-aea9-3d263e8251fe","slug":"harsova","source_name":"Harsova","display_name":"Hârșova","river_km":253,"level_cm":-119,"variation_cm_24h":-1,"water_temperature_c":28,"measurement_datetime":"2026-08-07T03:00:00+03:00","quality_flag":"valid"}},{"type":"Feature","id":"267d20a8-8a85-4d85-97e1-8aee686e9535","geometry":{"type":"Point","coordinates":[28.0316248,44.3416349]},"properties":{"station_id":"267d20a8-8a85-4d85-97e1-8aee686e9535","slug":"cernavoda","source_name":"Cernavoda","display_name":"Cernavodă","river_km":300,"level_cm":-218,"variation_cm_24h":-2,"water_temperature_c":28,"measurement_datetime":"2026-08-07T03:00:00+03:00","quality_flag":"valid"}},{"type":"Feature","id":"29f3d156-04e1-46bc-b699-bbea096e212f","geometry":{"type":"Point","coordinates":[27.3313233,44.1961646]},"properties":{"station_id":"29f3d156-04e1-46bc-b699-bbea096e212f","slug":"calarasi","source_name":"Calarasi","display_name":"Călărași","river_km":370,"level_cm":-171,"variation_cm_24h":-4,"water_temperature_c":28,"measurement_datetime":"2026-08-07T03:00:00+03:00","quality_flag":"valid"}},{"type":"Feature","id":"e5eea969-9ccd-4b3e-9aa5-439c8f0d1ff0","geometry":{"type":"Point","coordinates":[26.6407009,44.0904556]},"properties":{"station_id":"e5eea969-9ccd-4b3e-9aa5-439c8f0d1ff0","slug":"oltenita","source_name":"Oltenita","display_name":"Oltenița","river_km":430,"level_cm":-130,"variation_cm_24h":-5,"water_temperature_c":28,"measurement_datetime":"2026-08-07T03:00:00+03:00","quality_flag":"valid"}},{"type":"Feature","id":"e3a30b68-5b3e-42d0-b6e7-82411594d811","geometry":{"type":"Point","coordinates":[25.9658111,43.8959058]},"properties":{"station_id":"e3a30b68-5b3e-42d0-b6e7-82411594d811","slug":"giurgiu","source_name":"Giurgiu","display_name":"Giurgiu","river_km":493,"level_cm":-169,"variation_cm_24h":-4,"water_temperature_c":28,"measurement_datetime":"2026-08-07T03:00:00+03:00","quality_flag":"valid"}},{"type":"Feature","id":"fda97819-adbe-448c-bb6b-85e4aea435af","geometry":{"type":"Point","coordinates":[25.3655464,43.6542344]},"properties":{"station_id":"fda97819-adbe-448c-bb6b-85e4aea435af","slug":"zimnicea","source_name":"Zimnicea","display_name":"Zimnicea","river_km":554,"level_cm":-68,"variation_cm_24h":-4,"water_temperature_c":28,"measurement_datetime":"2026-08-07T03:00:00+03:00","quality_flag":"valid"}},{"type":"Feature","id":"5f0aaecc-01c1-4828-be3a-405bf48702b8","geometry":{"type":"Point","coordinates":[24.8691717,43.7518306]},"properties":{"station_id":"5f0aaecc-01c1-4828-be3a-405bf48702b8","slug":"turnu-magurele","source_name":"Turnu Magurele","display_name":"Turnu Măgurele","river_km":597,"level_cm":-108,"variation_cm_24h":-3,"water_temperature_c":28,"measurement_datetime":"2026-08-07T03:00:00+03:00","quality_flag":"valid"}},{"type":"Feature","id":"b5ab6a64-d495-4137-b6a3-4c98d96836c9","geometry":{"type":"Point","coordinates":[24.5015439,43.7747612]},"properties":{"station_id":"b5ab6a64-d495-4137-b6a3-4c98d96836c9","slug":"corabia","source_name":"Corabia","display_name":"Corabia","river_km":630,"level_cm":-136,"variation_cm_24h":-2,"water_temperature_c":28,"measurement_datetime":"2026-08-07T03:00:00+03:00","quality_flag":"valid"}},{"type":"Feature","id":"03013570-89c3-468d-929e-389aa605e929","geometry":{"type":"Point","coordinates":[23.9574422,43.784314]},"properties":{"station_id":"03013570-89c3-468d-929e-389aa605e929","slug":"bechet","source_name":"Bechet","display_name":"Bechet","river_km":679,"level_cm":-100,"variation_cm_24h":-2,"water_temperature_c":28,"measurement_datetime":"2026-08-07T03:00:00+03:00","quality_flag":"valid"}},{"type":"Feature","id":"89bd48d0-b491-4706-986d-d67ffc282f4e","geometry":{"type":"Point","coordinates":[23.2813472,43.8851672]},"properties":{"station_id":"89bd48d0-b491-4706-986d-d67ffc282f4e","slug":"rast","source_name":"Rast","display_name":"Rast","river_km":738,"level_cm":-162,"variation_cm_24h":-1,"water_temperature_c":28,"measurement_datetime":"2026-08-07T03:00:00+03:00","quality_flag":"valid"}},{"type":"Feature","id":"a4976c0d-d21d-4bda-b6bc-c19c0edc6123","geometry":{"type":"Point","coordinates":[22.9337027,43.9942983]},"properties":{"station_id":"a4976c0d-d21d-4bda-b6bc-c19c0edc6123","slug":"calafat","source_name":"Calafat","display_name":"Calafat","river_km":795,"level_cm":-170,"variation_cm_24h":0,"water_temperature_c":28,"measurement_datetime":"2026-08-07T03:00:00+03:00","quality_flag":"valid"}},{"type":"Feature","id":"031cc7fd-3f5f-4d3f-8c42-01438e8dd69a","geometry":{"type":"Point","coordinates":[23.0475514,44.1114259]},"properties":{"station_id":"031cc7fd-3f5f-4d3f-8c42-01438e8dd69a","slug":"cetate","source_name":"Cetate","display_name":"Cetate","river_km":811,"level_cm":-112,"variation_cm_24h":0,"water_temperature_c":28,"measurement_datetime":"2026-08-07T03:00:00+03:00","quality_flag":"valid"}},{"type":"Feature","id":"09b542d8-41d7-4746-8d84-e081f76a8c37","geometry":{"type":"Point","coordinates":[22.7046852,44.2665732]},"properties":{"station_id":"09b542d8-41d7-4746-8d84-e081f76a8c37","slug":"gruia","source_name":"Gruia","display_name":"Gruia","river_km":851,"level_cm":-156,"variation_cm_24h":0,"water_temperature_c":28,"measurement_datetime":"2026-08-07T03:00:00+03:00","quality_flag":"valid"}},{"type":"Feature","id":"3d63f295-2216-491e-86ba-a0e19b6b5fa3","geometry":{"type":"Point","coordinates":[22.6531975,44.6257835]},"properties":{"station_id":"3d63f295-2216-491e-86ba-a0e19b6b5fa3","slug":"drobeta-turnu-severin","source_name":"Drobeta Turnu Severin","display_name":"Drobeta-Turnu Severin","river_km":931,"level_cm":675,"variation_cm_24h":0,"water_temperature_c":28,"measurement_datetime":"2026-08-07T03:00:00+03:00","quality_flag":"valid"}},{"type":"Feature","id":"bbf5e3ee-6ed6-4b87-afee-d78643847aea","geometry":{"type":"Point","coordinates":[22.392312975059,44.726128]},"properties":{"station_id":"bbf5e3ee-6ed6-4b87-afee-d78643847aea","slug":"orsova","source_name":"Orsova","display_name":"Orșova","river_km":954,"level_cm":2508,"variation_cm_24h":-2,"water_temperature_c":28,"measurement_datetime":"2026-08-07T03:00:00+03:00","quality_flag":"valid"}},{"type":"Feature","id":"841d8091-d02e-4c06-8391-7f5aa233b244","geometry":{"type":"Point","coordinates":[21.9723364,44.6377707]},"properties":{"station_id":"841d8091-d02e-4c06-8391-7f5aa233b244","slug":"drencova","source_name":"Drencova","display_name":"Drencova","river_km":1015,"level_cm":961,"variation_cm_24h":1,"water_temperature_c":28,"measurement_datetime":"2026-08-07T03:00:00+03:00","quality_flag":"valid"}},{"type":"Feature","id":"264afec2-a181-408b-979c-473e5eaf4940","geometry":{"type":"Point","coordinates":[21.6198348,44.7213534]},"properties":{"station_id":"264afec2-a181-408b-979c-473e5eaf4940","slug":"moldova-veche","source_name":"Moldova Veche","display_name":"Moldova Veche","river_km":1048,"level_cm":690,"variation_cm_24h":0,"water_temperature_c":28,"measurement_datetime":"2026-08-07T03:00:00+03:00","quality_flag":"valid"}},{"type":"Feature","id":"1a87220f-e0ae-4cf3-b921-e1e5b73f5f75","geometry":{"type":"Point","coordinates":[21.39048,44.8159071]},"properties":{"station_id":"1a87220f-e0ae-4cf3-b921-e1e5b73f5f75","slug":"bazias","source_name":"Bazias","display_name":"Baziaș","river_km":1072,"level_cm":542,"variation_cm_24h":0,"water_temperature_c":28,"measurement_datetime":"2026-08-07T03:00:00+03:00","quality_flag":"valid"}}]}
